OBJECT_NAME,OBJECT_ID,EPOCH,MEAN_MOTION,ECCENTRICITY,INCLINATION,RA_OF_ASC_NODE,ARG_OF_PERICENTER,MEAN_ANOMALY,EPHEMERIS_TYPE,CLASSIFICATION_TYPE,NORAD_CAT_ID,ELEMENT_SET_NO,REV_AT_EPOCH,BSTAR,MEAN_MOTION_DOT,MEAN_MOTION_DDOT
STARLINK-35704,2025-244R,2026-06-08T05:58:36.892704,15.30204417,.0001621,53.1591,169.3450,128.1136,232.0011,0,U,66221,999,3552,-.19523E-3,-.6138E-4,0
STARLINK-35666,2025-244S,2026-06-08T07:37:15.762720,15.30205860,.00011788,53.1565,169.0531,94.0926,266.0209,0,U,66222,999,3553,.51110785E-3,.14811E-3,0
STARLINK-35664,2025-244T,2026-06-08T17:10:41.928384,15.30207565,.0001403,53.1580,167.2688,73.2600,286.8555,0,U,66223,999,3559,.5888E-3,.17124E-3,0
STARLINK-35733,2025-244U,2026-06-08T17:30:27.206784,15.30201384,.0001252,53.1574,167.3550,83.6400,276.4743,0,U,66224,999,3559,.52875E-3,.15334E-3,0
STARLINK-35734,2025-244V,2026-06-08T04:33:42.735744,15.30206308,.000164,53.1589,169.6838,120.7881,239.3282,0,U,66225,999,3551,.6109E-3,.17781E-3,0
STARLINK-34466,2025-244W,2026-06-08T17:21:23.680800,15.34403317,.000143,53.1594,166.6059,81.3536,278.7629,0,U,66226,999,3560,.64818E-3,.21589E-3,0
STARLINK-34882,2025-244X,2026-06-08T17:39:35.691264,15.34387809,.0001074,53.1587,166.6836,34.6533,325.4540,0,U,66227,999,3560,.48797E-3,.1614E-3,0
STARLINK-35731,2025-244Y,2026-06-08T17:09:16.513344,15.34402369,.0001422,53.1585,166.5543,78.0480,282.0682,0,U,66228,999,3560,.70649E-3,.23571E-3,0
STARLINK-35758,2025-244Z,2026-06-08T17:27:27.303840,15.34402817,.000136,53.1584,166.6286,74.7666,285.3486,0,U,66229,999,3560,.60454E-3,.20106E-3,0
STARLINK-35736,2025-244AA,2026-06-08T07:31:10.888608,15.30204120,.00011851,53.1575,169.0218,81.1852,278.9283,0,U,66230,999,3553,.48571496E-3,.14055E-3,0
STARLINK-35735,2025-244AB,2026-06-08T05:23:41.168256,15.30173261,.0001474,53.1601,169.1796,96.7053,263.4115,0,U,66231,999,3552,.29442E-3,.8363E-4,0
STARLINK-35753,2025-244AC,2026-06-08T08:09:10.253664,15.30198655,.00012697,53.1593,169.1827,77.1759,282.9383,0,U,66232,999,3553,.42491212E-3,.12246E-3,0
STARLINK-35626,2025-244AD,2026-06-08T17:28:55.926048,15.30211544,.0001548,53.1578,167.3454,73.5622,286.5549,0,U,66233,999,3559,.58241E-3,.16936E-3,0
STARLINK-35537,2025-245A,2026-06-08T11:11:04.841664,15.31699952,.00010035,53.1569,221.6248,96.6774,263.4342,0,U,66234,999,3516,.32667494E-3,.9785E-4,0
STARLINK-35541,2025-245B,2026-06-08T10:34:13.357632,15.30245070,.00011264,53.1576,222.1705,77.9809,282.1318,0,U,66235,999,3510,.12421204E-2,.36662E-3,0
STARLINK-35454,2025-245C,2026-06-08T11:24:24.441696,15.30175240,.0001085,53.1567,222.3860,80.2352,279.8771,0,U,66236,999,3499,.70378636E-3,.20527E-3,0
STARLINK-35557,2025-245D,2026-06-08T11:34:08.046912,15.34394696,.00012965,53.1586,220.3012,71.1256,288.9887,0,U,66237,999,3518,.32667062E-3,.10675E-3,0
STARLINK-35556,2025-245E,2026-06-08T11:37:09.227712,15.34393753,.00012649,53.1583,220.3180,86.9217,273.1930,0,U,66238,999,3518,.48453305E-3,.16026E-3,0
STARLINK-35554,2025-245F,2026-06-08T11:04:30.779904,15.31694368,.00013615,53.1582,222.3053,88.4422,271.6735,0,U,66239,999,3499,.52500584E-3,.15958E-3,0
STARLINK-35546,2025-245G,2026-06-08T10:32:43.696032,15.30211290,.00015292,53.1599,222.1615,98.6954,261.4220,0,U,66240,999,3515,.54030551E-3,.15682E-3,0
STARLINK-35497,2025-245H,2026-06-08T10:26:38.661216,15.30199777,.00016505,53.1596,222.1369,65.8700,294.2473,0,U,66241,999,3510,.41465522E-3,.11941E-3,0
STARLINK-35480,2025-245J,2026-06-08T11:42:37.921824,15.30200189,.00009468,53.1583,222.4653,96.4529,263.6580,0,U,66242,999,3515,.89950824E-3,.26376E-3,0
STARLINK-35495,2025-245K,2026-06-08T11:56:09.140928,15.30193383,.00010077,53.1590,221.8131,87.6101,272.5015,0,U,66243,999,3515,.58072166E-3,.16876E-3,0
STARLINK-35517,2025-245L,2026-06-08T11:47:01.282848,15.30208027,.00015646,53.1590,221.7746,85.7683,274.3497,0,U,66244,999,3495,.54864836E-3,.15929E-3,0
STARLINK-35503,2025-245M,2026-06-08T11:38:04.864128,15.30180331,.00011136,53.1579,222.4453,100.1888,259.9238,0,U,66245,999,3510,.44395237E-3,.12804E-3,0
STARLINK-35434,2025-245N,2026-06-08T11:58:07.343040,15.31712899,.000133,53.1592,221.8246,81.8156,278.2996,0,U,66246,999,3495,.78156715E-3,.23976E-3,0
STARLINK-35481,2025-245P,2026-06-08T10:30:51.274944,15.31758207,.00010937,53.1566,222.1556,64.2862,295.8252,0,U,66247,999,3515,.11604041E-2,.35883E-3,0
STARLINK-35416,2025-245Q,2026-06-08T11:37:57.822528,15.31703672,.00010731,53.1583,221.7349,81.8961,278.2162,0,U,66248,999,3510,.49581518E-3,.15053E-3,0
STARLINK-35304,2025-245R,2026-06-08T10:41:51.943776,15.30174359,.00014559,53.1589,222.1951,87.6109,272.5058,0,U,66249,999,3493,.52021685E-3,.15067E-3,0
STARLINK-35338,2025-245S,2026-06-08T11:31:14.025216,15.31711790,.00012316,53.1574,221.7063,80.7702,279.3439,0,U,66250,999,3506,.43231271E-3,.13079E-3,0
