STARLINK-35704          
1 66221U 25244R   26159.24903811 -.00006138  00000+0 -19523-3 0  9997
2 66221  53.1591 169.3450 0001621 128.1136 232.0011 15.30204417 35524
STARLINK-35666          
1 66222U 25244S   26159.31754355  .00014811  00000+0  51111-3 0  9997
2 66222  53.1565 169.0531 0001178  94.0926 266.0209 15.30205860 35538
STARLINK-35664          
1 66223U 25244T   26159.71576306  .00017124  00000+0  58880-3 0  9990
2 66223  53.1580 167.2688 0001403  73.2600 286.8555 15.30207565 35592
STARLINK-35733          
1 66224U 25244U   26159.72948156  .00015334  00000+0  52875-3 0  9997
2 66224  53.1574 167.3550 0001252  83.6400 276.4743 15.30201384 35597
STARLINK-35734          
1 66225U 25244V   26159.19007796  .00017781  00000+0  61090-3 0  9992
2 66225  53.1589 169.6838 0001640 120.7881 239.3282 15.30206308 35514
STARLINK-34466          
1 66226U 25244W   26159.72319075  .00021589  00000+0  64818-3 0  9990
2 66226  53.1594 166.6059 0001430  81.3536 278.7629 15.34403317 35604
STARLINK-34882          
1 66227U 25244X   26159.73582976  .00016140  00000+0  48797-3 0  9999
2 66227  53.1587 166.6836 0001074  34.6533 325.4540 15.34387809 35601
STARLINK-35731          
1 66228U 25244Y   26159.71477446  .00023571  00000+0  70649-3 0  9990
2 66228  53.1585 166.5543 0001422  78.0480 282.0682 15.34402369 35608
STARLINK-35758          
1 66229U 25244Z   26159.72739935  .00020106  00000+0  60454-3 0  9990
2 66229  53.1584 166.6286 0001360  74.7666 285.3486 15.34402817 35609
STARLINK-35736          
1 66230U 25244AA  26159.31332047  .00014055  00000+0  48571-3 0  9992
2 66230  53.1575 169.0218 0001185  81.1852 278.9283 15.30204120 35535
STARLINK-35735          
1 66231U 25244AB  26159.22478204  .00008363  00000+0  29442-3 0  9990
2 66231  53.1601 169.1796 0001474  96.7053 263.4115 15.30173261 35527
STARLINK-35753          
1 66232U 25244AC  26159.33970201  .00012246  00000+0  42491-3 0  9991
2 66232  53.1593 169.1827 0001269  77.1759 282.9383 15.30198655 35539
STARLINK-35626          
1 66233U 25244AD  26159.72842507  .00016936  00000+0  58241-3 0  9992
2 66233  53.1578 167.3454 0001548  73.5622 286.5549 15.30211544 35591
STARLINK-35537          
1 66234U 25245A   26159.46602826  .00009785  00000+0  32667-3 0  9991
2 66234  53.1569 221.6248 0001003  96.6774 263.4342 15.31699952 35169
STARLINK-35541          
1 66235U 25245B   26159.44043238  .00036662  00000+0  12421-2 0  9995
2 66235  53.1576 222.1705 0001126  77.9809 282.1318 15.30245070 35101
STARLINK-35454          
1 66236U 25245C   26159.47528289  .00020527  00000+0  70379-3 0  9993
2 66236  53.1567 222.3860 0001085  80.2352 279.8771 15.30175240 34993
STARLINK-35557          
1 66237U 25245D   26159.48203758  .00010675  00000+0  32667-3 0  9997
2 66237  53.1586 220.3012 0001296  71.1256 288.9887 15.34394696 35181
STARLINK-35556          
1 66238U 25245E   26159.48413458  .00016026  00000+0  48453-3 0  9994
2 66238  53.1583 220.3180 0001264  86.9217 273.1930 15.34393753 35189
STARLINK-35554          
1 66239U 25245F   26159.46146736  .00015958  00000+0  52501-3 0  9997
2 66239  53.1582 222.3053 0001361  88.4422 271.6735 15.31694368 34990
STARLINK-35546          
1 66240U 25245G   26159.43939463  .00015682  00000+0  54031-3 0  9997
2 66240  53.1599 222.1615 0001529  98.6954 261.4220 15.30211290 35154
STARLINK-35497          
1 66241U 25245H   26159.43516969  .00011941  00000+0  41466-3 0  9992
2 66241  53.1596 222.1369 0001650  65.8700 294.2473 15.30199777 35102
STARLINK-35480          
1 66242U 25245J   26159.48793891  .00026376  00000+0  89951-3 0  9998
2 66242  53.1583 222.4653 0000946  96.4529 263.6580 15.30200189 35158
STARLINK-35495          
1 66243U 25245K   26159.49732802  .00016876  00000+0  58072-3 0  9999
2 66243  53.1590 221.8131 0001007  87.6101 272.5015 15.30193383 35157
STARLINK-35517          
1 66244U 25245L   26159.49098707  .00015929  00000+0  54865-3 0  9993
2 66244  53.1590 221.7746 0001564  85.7683 274.3497 15.30208027 34954
STARLINK-35503          
1 66245U 25245M   26159.48477852  .00012804  00000+0  44395-3 0  9991
2 66245  53.1579 222.4453 0001113 100.1888 259.9238 15.30180331 35101
STARLINK-35434          
1 66246U 25245N   26159.49869610  .00023976  00000+0  78157-3 0  9995
2 66246  53.1592 221.8246 0001330  81.8156 278.2996 15.31712899 34952
STARLINK-35481          
1 66247U 25245P   26159.43809346  .00035883  00000+0  11604-2 0  9993
2 66247  53.1566 222.1556 0001093  64.2862 295.8252 15.31758207 35153
STARLINK-35416          
1 66248U 25245Q   26159.48469702  .00015053  00000+0  49582-3 0  9991
2 66248  53.1583 221.7349 0001073  81.8961 278.2162 15.31703672 35107
STARLINK-35304          
1 66249U 25245R   26159.44574009  .00015067  00000+0  52022-3 0  9993
2 66249  53.1589 222.1951 0001455  87.6109 272.5058 15.30174359 34934
STARLINK-35338          
1 66250U 25245S   26159.48002344  .00013079  00000+0  43231-3 0  9990
2 66250  53.1574 221.7063 0001231  80.7702 279.3439 15.31711790 35064
